GLOBALSTAR M080 [+]     
1 38041U 11080B   24100.93338565 -.00000090  00000+0  74836-4 0  9996
2 38041  52.0055 288.9125 0001125 115.5961  58.5594 12.62271051568076
GLOBALSTAR M082 [+]     
1 38042U 11080C   24101.10473699 -.00000109  00000+0 -28518-4 0  9993
2 38042  52.0066 243.7901 0000372  53.1479 119.9392 12.62267880568976
GLOBALSTAR M092 [+]     
1 38043U 11080D   24101.07243123 -.00000070  00000+0  19092-3 0  9999
2 38043  52.0101 334.2427 0000606 103.2643  43.4902 12.62277774567460
GLOBALSTAR M090 [+]     
1 38044U 11080E   24100.69984023 -.00000103  00000+0  17562-5 0  9997
2 38044  51.9875 239.3877 0000526  90.1100 283.3497 12.62267983568875
GLOBALSTAR M086 [+]     
1 38045U 11080F   24101.15714346 -.00000100  00000+0  20585-4 0  9994
2 38045  51.9888 238.5133 0001579  92.8863  79.1484 12.62269325568970
GLOBALSTAR M093 [+]     
1 39073U 13005B   24100.80256972 -.00000076  00000+0  15387-3 0  9997
2 39073  51.9794 147.6971 0000501  65.5587 294.5332 12.62262963516038
